STARLINK-31774          
1 59622U 24080X   26068.31303101 -.00000576  00000+0 -11386-4 0  9994
2 59622  43.0047  36.6914 0001499 262.6792  97.3889 15.27576945104516
FLOCK 4G-18             
1 62680U 25009BZ  26068.19114186  .00011766  00000+0  44319-3 0  9995
2 62680  97.4054 150.5008 0004100 335.7331  24.3715 15.27241676121267
